ONEWEB-0238             
1 48784U 21045T   25250.22846135  .00003161  00000+0  83602-2 0  9999
2 48784  87.9041 315.6317 0001909 118.1732 241.9591 13.15533543207171
ONEWEB-0240             
1 48785U 21045U   25250.24970603  .00000148  00000+0  35896-3 0  9995
2 48785  87.9050 315.6118 0001530 102.3270 257.8032 13.15548202207201
ONEWEB-0246             
1 48786U 21045V   25250.24416114  .00000138  00000+0  33248-3 0  9996
2 48786  87.9051 315.6254 0001812  92.4437 267.6901 13.15548837207074
ONEWEB-0210             
1 48787U 21045W   25250.21880865 -.00000077  00000+0 -23846-3 0  9999
2 48787  87.9051 315.6298 0001601  76.3667 283.7642 13.15548590207117
ONEWEB-0214             
1 48788U 21045X   25250.22751310 -.00000002  00000+0 -39392-4 0  9995
2 48788  87.9049 315.6160 0001848  83.2771 276.8570 13.15547731207084
ONEWEB-0221             
1 48789U 21045Y   25250.23465232  .00000031  00000+0  49271-4 0  9999
2 48789  87.9038 315.6408 0001650  95.5775 264.5543 13.15549802207174
ONEWEB-0213             
1 48790U 21045Z   25250.22356276 -.00000062  00000+0 -19970-3 0  9995
2 48790  87.9042 315.6513 0001653  91.4157 268.7163 13.15548638207237
ONEWEB-0212             
1 48791U 21045AA  25250.20058760 -.00000011  00000+0 -63689-4 0  9992
2 48791  87.9049 315.6383 0001866  98.3741 261.7601 13.15548552207225
ONEWEB-0227             
1 48792U 21045AB  25250.19979131 -.00000034  00000+0 -12341-3 0  9998
2 48792  87.9042 315.6573 0001745  96.4579 263.6751 13.15548780207178
ONEWEB-0226             
1 48793U 21045AC  25250.19343545  .00000076  00000+0  16663-3 0  9998
2 48793  87.9047 315.6656 0001643  87.0323 273.0996 13.15541318207149
ONEWEB-0224             
1 48794U 21045AD  25250.23306947  .00000030  00000+0  46541-4 0  9998
2 48794  87.9042 315.6932 0001419 129.2783 230.8474 13.15548457207077
ONEWEB-0233             
1 48795U 21045AE  25250.23768028  .00000102  00000+0  23749-3 0  9995
2 48795  87.9045 315.7032 0001523  98.2973 261.8330 13.15548054207095
ONEWEB-0190             
1 48796U 21045AF  25250.22514021 -.00000037  00000+0 -13335-3 0  9996
2 48796  87.9041 315.6686 0001175  81.2014 278.9250 13.15549923207161
ONEWEB-0236             
1 48797U 21045AG  25250.24258221  .00000122  00000+0  28939-3 0  9995
2 48797  87.9044 315.6759 0001947 100.4164 259.7186 13.15548946207050
ONEWEB-0248             
1 48798U 21045AH  25250.25524972  .00000174  00000+0  42861-3 0  9993
2 48798  87.9052 315.6277 0001268 107.6393 252.4876 13.15550088207218
ONEWEB-0225             
1 48799U 21045AJ  25250.20138054 -.00000030  00000+0 -11241-3 0  9992
2 48799  87.9047 315.6697 0001311  86.1319 273.9962 13.15549540207212
