[{"OBJECT_NAME":"ONEWEB-0238","OBJECT_ID":"2021-045T","EPOCH":"2025-09-07T05:28:59.060640","MEAN_MOTION":13.15533543,"ECCENTRICITY":0.00019097,"INCLINATION":87.9041,"RA_OF_ASC_NODE":315.6317,"ARG_OF_PERICENTER":118.1732,"MEAN_ANOMALY":241.9591,"EPHEMERIS_TYPE":0,"CLASSIFICATION_TYPE":"U","NORAD_CAT_ID":48784,"ELEMENT_SET_NO":999,"REV_AT_EPOCH":20717,"BSTAR":0.0083602011,"MEAN_MOTION_DOT":3.161e-5,"MEAN_MOTION_DDOT":0},{"OBJECT_NAME":"ONEWEB-0240","OBJECT_ID":"2021-045U","EPOCH":"2025-09-07T05:59:34.600992","MEAN_MOTION":13.15548202,"ECCENTRICITY":0.00015309,"INCLINATION":87.905,"RA_OF_ASC_NODE":315.6118,"ARG_OF_PERICENTER":102.327,"MEAN_ANOMALY":257.8032,"EPHEMERIS_TYPE":0,"CLASSIFICATION_TYPE":"U","NORAD_CAT_ID":48785,"ELEMENT_SET_NO":999,"REV_AT_EPOCH":20720,"BSTAR":0.0003589643,"MEAN_MOTION_DOT":1.48e-6,"MEAN_MOTION_DDOT":0},{"OBJECT_NAME":"ONEWEB-0246","OBJECT_ID":"2021-045V","EPOCH":"2025-09-07T05:51:35.522496","MEAN_MOTION":13.15548837,"ECCENTRICITY":0.00018127,"INCLINATION":87.9051,"RA_OF_ASC_NODE":315.6254,"ARG_OF_PERICENTER":92.4437,"MEAN_ANOMALY":267.6901,"EPHEMERIS_TYPE":0,"CLASSIFICATION_TYPE":"U","NORAD_CAT_ID":48786,"ELEMENT_SET_NO":999,"REV_AT_EPOCH":20707,"BSTAR":0.00033247624,"MEAN_MOTION_DOT":1.38e-6,"MEAN_MOTION_DDOT":0},{"OBJECT_NAME":"ONEWEB-0210","OBJECT_ID":"2021-045W","EPOCH":"2025-09-07T05:15:05.067360","MEAN_MOTION":13.1554859,"ECCENTRICITY":0.00016019,"INCLINATION":87.9051,"RA_OF_ASC_NODE":315.6298,"ARG_OF_PERICENTER":76.3667,"MEAN_ANOMALY":283.7642,"EPHEMERIS_TYPE":0,"CLASSIFICATION_TYPE":"U","NORAD_CAT_ID":48787,"ELEMENT_SET_NO":999,"REV_AT_EPOCH":20711,"BSTAR":-0.00023846412,"MEAN_MOTION_DOT":-7.7e-7,"MEAN_MOTION_DDOT":0},{"OBJECT_NAME":"ONEWEB-0214","OBJECT_ID":"2021-045X","EPOCH":"2025-09-07T05:27:37.131840","MEAN_MOTION":13.15547731,"ECCENTRICITY":0.00018485,"INCLINATION":87.9049,"RA_OF_ASC_NODE":315.616,"ARG_OF_PERICENTER":83.2771,"MEAN_ANOMALY":276.857,"EPHEMERIS_TYPE":0,"CLASSIFICATION_TYPE":"U","NORAD_CAT_ID":48788,"ELEMENT_SET_NO":999,"REV_AT_EPOCH":20708,"BSTAR":-3.939221e-5,"MEAN_MOTION_DOT":-2.0e-8,"MEAN_MOTION_DDOT":0},{"OBJECT_NAME":"ONEWEB-0221","OBJECT_ID":"2021-045Y","EPOCH":"2025-09-07T05:37:53.960448","MEAN_MOTION":13.15549802,"ECCENTRICITY":0.00016501,"INCLINATION":87.9038,"RA_OF_ASC_NODE":315.6408,"ARG_OF_PERICENTER":95.5775,"MEAN_ANOMALY":264.5543,"EPHEMERIS_TYPE":0,"CLASSIFICATION_TYPE":"U","NORAD_CAT_ID":48789,"ELEMENT_SET_NO":999,"REV_AT_EPOCH":20717,"BSTAR":4.9271223e-5,"MEAN_MOTION_DOT":3.1e-7,"MEAN_MOTION_DDOT":0},{"OBJECT_NAME":"ONEWEB-0213","OBJECT_ID":"2021-045Z","EPOCH":"2025-09-07T05:21:55.822464","MEAN_MOTION":13.15548638,"ECCENTRICITY":0.00016534,"INCLINATION":87.9042,"RA_OF_ASC_NODE":315.6513,"ARG_OF_PERICENTER":91.4157,"MEAN_ANOMALY":268.7163,"EPHEMERIS_TYPE":0,"CLASSIFICATION_TYPE":"U","NORAD_CAT_ID":48790,"ELEMENT_SET_NO":999,"REV_AT_EPOCH":20723,"BSTAR":-0.0001997035,"MEAN_MOTION_DOT":-6.2e-7,"MEAN_MOTION_DDOT":0},{"OBJECT_NAME":"ONEWEB-0212","OBJECT_ID":"2021-045AA","EPOCH":"2025-09-07T04:48:50.768640","MEAN_MOTION":13.15548552,"ECCENTRICITY":0.00018667,"INCLINATION":87.9049,"RA_OF_ASC_NODE":315.6383,"ARG_OF_PERICENTER":98.3741,"MEAN_ANOMALY":261.7601,"EPHEMERIS_TYPE":0,"CLASSIFICATION_TYPE":"U","NORAD_CAT_ID":48791,"ELEMENT_SET_NO":999,"REV_AT_EPOCH":20722,"BSTAR":-6.3688875e-5,"MEAN_MOTION_DOT":-1.1e-7,"MEAN_MOTION_DDOT":0},{"OBJECT_NAME":"ONEWEB-0227","OBJECT_ID":"2021-045AB","EPOCH":"2025-09-07T04:47:41.969184","MEAN_MOTION":13.1554878,"ECCENTRICITY":0.00017458,"INCLINATION":87.9042,"RA_OF_ASC_NODE":315.6573,"ARG_OF_PERICENTER":96.4579,"MEAN_ANOMALY":263.6751,"EPHEMERIS_TYPE":0,"CLASSIFICATION_TYPE":"U","NORAD_CAT_ID":48792,"ELEMENT_SET_NO":999,"REV_AT_EPOCH":20717,"BSTAR":-0.00012340911,"MEAN_MOTION_DOT":-3.4e-7,"MEAN_MOTION_DDOT":0},{"OBJECT_NAME":"ONEWEB-0226","OBJECT_ID":"2021-045AC","EPOCH":"2025-09-07T04:38:32.822880","MEAN_MOTION":13.15541318,"ECCENTRICITY":0.00016437,"INCLINATION":87.9047,"RA_OF_ASC_NODE":315.6656,"ARG_OF_PERICENTER":87.0323,"MEAN_ANOMALY":273.0996,"EPHEMERIS_TYPE":0,"CLASSIFICATION_TYPE":"U","NORAD_CAT_ID":48793,"ELEMENT_SET_NO":999,"REV_AT_EPOCH":20714,"BSTAR":0.00016662951,"MEAN_MOTION_DOT":7.6e-7,"MEAN_MOTION_DDOT":0},{"OBJECT_NAME":"ONEWEB-0224","OBJECT_ID":"2021-045AD","EPOCH":"2025-09-07T05:35:37.202208","MEAN_MOTION":13.15548457,"ECCENTRICITY":0.00014196,"INCLINATION":87.9042,"RA_OF_ASC_NODE":315.6932,"ARG_OF_PERICENTER":129.2783,"MEAN_ANOMALY":230.8474,"EPHEMERIS_TYPE":0,"CLASSIFICATION_TYPE":"U","NORAD_CAT_ID":48794,"ELEMENT_SET_NO":999,"REV_AT_EPOCH":20707,"BSTAR":4.6540539e-5,"MEAN_MOTION_DOT":3.0e-7,"MEAN_MOTION_DDOT":0},{"OBJECT_NAME":"ONEWEB-0233","OBJECT_ID":"2021-045AE","EPOCH":"2025-09-07T05:42:15.576192","MEAN_MOTION":13.15548054,"ECCENTRICITY":0.00015231,"INCLINATION":87.9045,"RA_OF_ASC_NODE":315.7032,"ARG_OF_PERICENTER":98.2973,"MEAN_ANOMALY":261.833,"EPHEMERIS_TYPE":0,"CLASSIFICATION_TYPE":"U","NORAD_CAT_ID":48795,"ELEMENT_SET_NO":999,"REV_AT_EPOCH":20709,"BSTAR":0.00023749106,"MEAN_MOTION_DOT":1.02e-6,"MEAN_MOTION_DDOT":0},{"OBJECT_NAME":"ONEWEB-0190","OBJECT_ID":"2021-045AF","EPOCH":"2025-09-07T05:24:12.114144","MEAN_MOTION":13.15549923,"ECCENTRICITY":0.00011758,"INCLINATION":87.9041,"RA_OF_ASC_NODE":315.6686,"ARG_OF_PERICENTER":81.2014,"MEAN_ANOMALY":278.925,"EPHEMERIS_TYPE":0,"CLASSIFICATION_TYPE":"U","NORAD_CAT_ID":48796,"ELEMENT_SET_NO":999,"REV_AT_EPOCH":20716,"BSTAR":-0.00013334999,"MEAN_MOTION_DOT":-3.7e-7,"MEAN_MOTION_DDOT":0},{"OBJECT_NAME":"ONEWEB-0236","OBJECT_ID":"2021-045AG","EPOCH":"2025-09-07T05:49:19.102944","MEAN_MOTION":13.15548946,"ECCENTRICITY":0.00019474,"INCLINATION":87.9044,"RA_OF_ASC_NODE":315.6759,"ARG_OF_PERICENTER":100.4164,"MEAN_ANOMALY":259.7186,"EPHEMERIS_TYPE":0,"CLASSIFICATION_TYPE":"U","NORAD_CAT_ID":48797,"ELEMENT_SET_NO":999,"REV_AT_EPOCH":20705,"BSTAR":0.0002893947,"MEAN_MOTION_DOT":1.22e-6,"MEAN_MOTION_DDOT":0},{"OBJECT_NAME":"ONEWEB-0248","OBJECT_ID":"2021-045AH","EPOCH":"2025-09-07T06:07:33.575808","MEAN_MOTION":13.15550088,"ECCENTRICITY":0.00012684,"INCLINATION":87.9052,"RA_OF_ASC_NODE":315.6277,"ARG_OF_PERICENTER":107.6393,"MEAN_ANOMALY":252.4876,"EPHEMERIS_TYPE":0,"CLASSIFICATION_TYPE":"U","NORAD_CAT_ID":48798,"ELEMENT_SET_NO":999,"REV_AT_EPOCH":20721,"BSTAR":0.00042861326,"MEAN_MOTION_DOT":1.74e-6,"MEAN_MOTION_DDOT":0},{"OBJECT_NAME":"ONEWEB-0225","OBJECT_ID":"2021-045AJ","EPOCH":"2025-09-07T04:49:59.278656","MEAN_MOTION":13.1554954,"ECCENTRICITY":0.00013117,"INCLINATION":87.9047,"RA_OF_ASC_NODE":315.6697,"ARG_OF_PERICENTER":86.1319,"MEAN_ANOMALY":273.9962,"EPHEMERIS_TYPE":0,"CLASSIFICATION_TYPE":"U","NORAD_CAT_ID":48799,"ELEMENT_SET_NO":999,"REV_AT_EPOCH":20721,"BSTAR":-0.00011241168,"MEAN_MOTION_DOT":-3.0e-7,"MEAN_MOTION_DDOT":0}]
